AMAZONAS 4A             
1 39616U 14011A   19149.84297128 -.00000246  00000-0  00000+0 0  9999
2 39616   0.0611  67.3738 0003395 353.4980  55.6721  1.00266495 19044
ASTRA 5B                
1 39617U 14011B   19150.18794792  .00000162  00000-0  00000+0 0  9994
2 39617   0.0673 299.7788 0003438 138.5224 268.2963  1.00272179 19057
IRNSS-1B                
1 39635U 14017A   19149.94058826  .00000071  00000-0  00000+0 0  9992
2 39635  29.3522 283.4889 0021621 181.0835 176.2335  1.00270152 18971
LUCH 5V                 
1 39727U 14023A   19150.02023464 -.00000263  00000-0  00000+0 0  9996
2 39727   1.2567 303.8167 0003663 147.8140 257.5598  1.00276060536706
KAZSAT-3                
1 39728U 14023B   19150.29494130  .00000069  00000-0  00000+0 0  9991
2 39728   0.0155 330.0465 0001012 166.8531 275.2806  1.00263075 18628
EUTELSAT 3B             
1 39773U 14030A   19149.85841203  .00000026  00000-0  00000-0 0  9990
2 39773   0.0642 349.2817 0004426 157.0904  52.8357  1.00272310 18240
ASIASAT 8               
1 40107U 14046A   19149.85701625 -.00000027  00000-0  00000+0 0  9994
2 40107   0.0305 286.6667 0001986 161.4103 103.6730  1.00273227 17678
ASIASAT 6               
1 40141U 14052A   19150.31238769 -.00000355  00000-0  00000+0 0  9990
2 40141   0.0132 348.1876 0000547 123.1141   8.6031  1.00267664 17349
OPTUS 10                
1 40146U 14054A   19150.25511575 -.00000140  00000-0  00000+0 0  9991
2 40146   0.0543 282.1872 0002892 172.9957  40.1337  1.00271982 17309
MEASAT-3B               
1 40147U 14054B   19150.09771750 -.00000235  00000-0  00000+0 0  9992
2 40147   0.0366  36.3380 0002244  12.0141 325.6588  1.00271997 17356
LUCH (OLYMP)            
1 40258U 14058A   19150.65926976  .00000058  00000-0  00000+0 0  9995
2 40258   0.0039 226.8703 0000896 236.3749  81.8863  1.00271002 17126
HIMAWARI-8              
1 40267U 14060A   19150.17298471 -.00000268  00000-0  00000+0 0  9991
2 40267   0.0027 135.6754 0000772 304.5270  10.1496  1.00272098 17040
IRNSS-1C                
1 40269U 14061A   19149.87437619 -.00000153  00000-0  00000+0 0  9991
2 40269   1.9625 209.7174 0017948   7.1055  68.1070  1.00274574 17003
INTELSAT 30 (IS-30)     
1 40271U 14062A   19150.27324606 -.00000144  00000-0  00000+0 0  9992
2 40271   0.0180 345.6380 0001323 113.5210 151.6554  1.00271405 16943
ARSAT 1                 
1 40272U 14062B   19149.84340747 -.00000253  00000-0  00000+0 0  9999
2 40272   0.0550 121.0435 0001325 323.9765  33.8757  1.00271095 17061
EXPRESS-AM6             
1 40277U 14064A   19150.30049271  .00000105  00000-0  00000+0 0  9992
2 40277   0.0116 243.1581 0000585 231.6666 293.8777  1.00273274 16851
GSAT-16                 
1 40332U 14078A   19149.87570066  .00000091  00000-0  00000-0 0  9995
2 40332   0.0531 123.4364 0007604 316.5481 177.4586  1.00272903 16303
DIRECTV 14              
1 40333U 14078B   19149.83799883 -.00000119  00000-0  00000+0 0  9993
2 40333   0.0169 311.1359 0000319  12.3060 126.0573  1.00270926 16423
YAMAL 401               
1 40345U 14082A   19149.87568473 -.00000223  00000-0  00000-0 0  9991
2 40345   0.0072 247.6636 0000752 215.5919 189.0624  1.00274469 16096
ASTRA 2G                
1 40364U 14089A   19149.86338447  .00000156  00000-0  00000-0 0  9998
2 40364   0.0270  10.1472 0004756  58.2663 157.7077  1.00272236 16144
FENGYUN 2G              
1 40367U 14090A   19149.87769116 -.00000296  00000-0  00000-0 0  9991
2 40367   1.1928 101.3106 0001091 319.0544 242.4580  1.00275115 16219
MUOS-3                  
1 40374U 15002A   19149.85474812 -.00000125  00000-0  00000-0 0  9998
2 40374   3.2276 338.9355 0055201 175.4649  24.9171  1.00272484 15777
INMARSAT 5-F2           
1 40384U 15005A   19150.45751962 -.00000278  00000-0  00000+0 0  9992
2 40384   0.0188 338.0537 0000221 283.2582  96.0854  1.00272015 15862
ABS-3A                  
1 40424U 15010A   19150.14354872 -.00000020  00000-0  00000+0 0  9993
2 40424   0.0082 344.6624 0002385   9.8256 301.5536  1.00271138 15599
EUTELSAT 115 WEST B     
1 40425U 15010B   19150.31591487 -.00000017  00000-0  00000+0 0  9994
2 40425   0.0099 148.6206 0000101  55.7196  42.0237  1.00268782 15612
EXPRESS-AM7             
1 40505U 15012A   19149.65042462  .00000156  00000-0  00000+0 0  9997
2 40505   0.0045 140.6558 0002824 287.1743  93.1968  1.00272488 15534
IRNSS-1D                
1 40547U 15018A   19149.92515501 -.00000311  00000-0  00000-0 0  9993
2 40547  29.2621 283.5933 0022888 182.4024 225.9809  1.00276160 15178
BEIDOU 17               
1 40549U 15019A   19150.41028259 -.00000155  00000-0  00000+0 0  9996
2 40549  53.5881 325.6153 0038376 186.9658 336.4836  1.00257181 15261
THOR 7                  
1 40613U 15022A   19150.32827279 -.00000001  00000-0  00000+0 0  9991
2 40613   0.0111 298.5728 0002243 128.5633 297.9415  1.00271471 15005
TURKMENALEM52E/MONACOSAT
1 40617U 15023A   19150.30049271  .00000111  00000-0  00000+0 0  9993
2 40617   0.0227  50.2763 0003042  27.0953 330.3397  1.00272149 15010
DIRECTV 15              
1 40663U 15026A   19150.15985448 -.00000108  00000-0  00000+0 0  9992
2 40663   0.0413 101.1823 0001107  49.9923  52.8984  1.00271256 14713
SKY MEXICO-1            
1 40664U 15026B   19150.13399413 -.00000227  00000-0  00000+0 0  9994
2 40664   0.0178 353.4621 0001824  82.9294 140.4252  1.00270701 14710
METEOSAT-11 (MSG-4)     
1 40732U 15034A   19150.31634049  .00000014  00000-0  00000+0 0  9999
2 40732   0.8370 212.4891 0000773 209.6809 299.9690  1.00282639 14217
STAR ONE C4             
1 40733U 15034B   19150.39004025 -.00000258  00000-0  00000+0 0  9994
2 40733   0.0598  79.5433 0002190 335.3893 263.1038  1.00272073 14211
WGS F7 (USA 263)        
1 40746U 15036A   19150.17978911  .00000025  00000-0  00000+0 0  9991
2 40746   0.0101  78.8361 0000245 270.9176 137.3634  1.00271323 14057
INTELSAT 34 (IS-34)     
1 40874U 15039A   19150.15924792 -.00000278  00000-0  00000+0 0  9993
2 40874   0.0200 314.7998 0000393 351.1199 303.3091  1.00271025 13856
EUTELSAT 8 WEST B       
1 40875U 15039B   19150.32827279 -.00000058  00000-0  00000+0 0  9991
2 40875   0.0721  27.8605 0004291  53.6540 276.2182  1.00272419 13876
GSAT-6                  
1 40880U 15041A   19150.23521558 -.00000157  00000-0  00000+0 0  9991
2 40880   0.0837 102.7224 0003868 170.4398 141.9558  1.00270695 13811
INMARSAT 5-F3           
1 40882U 15042A   19150.49735553  .00000058  00000-0  00000+0 0  9993
2 40882   0.0193 330.7676 0000429 172.1618 103.4132  1.00270668 13738
MUOS-4                  
1 40887U 15044A   19149.87263149 -.00000091  00000-0  00000-0 0  9996
2 40887   3.4059 336.5448 0054892   3.8564 295.8613  1.00272879 13742
TJS-1                   
1 40892U 15046A   19150.72564025 -.00000148  00000-0  10000-3 0  9994
2 40892   0.0170 311.0554 0003930 122.2693 230.7597  1.00274369 13731
EXPRESS-AM8             
1 40895U 15048A   19150.42928383 -.00000104  00000-0  00000+0 0  9994
2 40895   0.0130 234.9742 0000996 223.0426 290.1788  1.00272138 13560
BEIDOU 20               
1 40938U 15053A   19149.99898241 -.00000163  00000-0  00000+0 0  9992
2 40938  53.1913 288.6011 0049579 180.9605 233.6056  1.00269127 13543
SKY MUSTER (NBN1A)      
1 40940U 15054A   19150.17289748 -.00000271  00000-0  00000+0 0  9994
2 40940   0.0156 308.3310 0001648 124.5541  17.0012  1.00272206 13465
ARSAT 2                 
1 40941U 15054B   19150.15142295 -.00000218  00000-0  00000+0 0  9999
2 40941   0.0552 118.9185 0001623 320.6414 141.3280  1.00271049 13497
MORELOS 3               
1 40946U 15056A   19149.73953800 -.00000045  00000-0  00000+0 0  9998
2 40946   5.4186 328.1421 0001620 175.7033 256.2591  1.00272279 13458
APSTAR 9                
1 40982U 15059A   19150.10942872 -.00000259  00000-0  00000+0 0  9998
2 40982   0.0467 116.4332 0001165 309.4134   2.9024  1.00272339 13333
TURKSAT 4B              
1 40984U 15060A   19149.86774626  .00000120  00000-0  00000-0 0  9990
2 40984   0.0163 319.9419 0001894 118.1135 171.4501  1.00275771 13299
CHINASAT 2C (ZX 2C)     
1 41021U 15063A   19149.87838905 -.00000317  00000-0  00000+0 0  9996
2 41021   0.0124 268.3649 0002530 147.4253 250.9633  1.00272184 13187
GSAT-15                 
1 41028U 15065A   19149.92200313 -.00000252  00000-0  00000-0 0  9996
2 41028   0.0912 280.5079 0003609 129.2315 262.8229  1.00271367 13025
BADR-7 (ARABSAT-6B)     
1 41029U 15065B   19150.15012890  .00000152  00000-0  00000+0 0  9992
2 41029   0.0535 266.9207 0002442 308.7968 111.6983  1.00269490 13088
LAOSAT 1                
1 41034U 15067A   19150.02695182 -.00000337  00000-0  00000+0 0  9993
2 41034   0.0116 291.0926 0001593 108.5600 345.7996  1.00266317 13024
TELSTAR 12V             
1 41036U 15068A   19147.99841080 -.00000117  00000-0  00000+0 0  9994
2 41036   0.0038 283.4672 0002130 145.1667 161.0652  1.00272188 12884
CHINASAT 1C (ZX 1C)     
1 41103U 15073A   19149.91500545 -.00000143  00000-0  00000-0 0  9997
2 41103   0.7256  96.0993 0001566 277.7731 284.1204  1.00271480 12848
ELEKTRO-L 2             
1 41105U 15074A   19149.87289318 -.00000091  00000-0  00000-0 0  9999
2 41105   0.3068 109.9916 0003151 329.0366 198.3620  1.00272625 12696
COSMOS 2513             
1 41121U 15075A   19149.81641799 -.00000132  00000-0  00000+0 0  9992
2 41121   0.0607 109.2991 0004531 320.8859 191.0184  1.00271405 12774
EXPRESS-AMU1            
1 41191U 15082A   19150.30605258  .00000163  00000-0  00000+0 0  9996
2 41191   0.0143 305.2424 0002301 127.0652 321.5254  1.00273026 12696
GAOFEN 4                
1 41194U 15083A   19149.87882523 -.00000329  00000-0  00000-0 0  9998
2 41194   0.0706 275.0280 0004291 274.2389 119.9766  1.00273165 12668
BELINTERSAT-1           
1 41238U 16001A   19150.30049271  .00000114  00000-0  00000+0 0  9993
2 41238   0.0534 140.4837 0002395 303.5653 323.1308  1.00272484 12442
